#dP2024 10 25  0  0  0.00000000      96 __u+U IGS20 EXT  IAC
## 2337 432000.00000000   900.00000000 60608 0.0000000000000
+   53   G02G03G04G05G06G07G08G09G10G11G12G13G14G15G16G17G18
+        G19G20G21G22G23G24G25G26G27G28G29G30G31G32R01R02R03
+        R04R05R07R08R09R11R12R14R15R16R17R18R19R20R21R22R24
+        R25R26  0  0  0  0  0  0  0  0  0  0  0  0  0  0  0
+          0  0  0  0  0  0  0  0  0  0  0  0  0  0  0  0  0
++         8  8  8  8  8  8  8  7  8  8  8  8  8  8  8  7  8
++         8  8  7  8  8  8  8  8  8  8  9  8  8  8  9  8  8
++         8  8  8  8  8  9 10  8  9  9  9  9  7  9  9  8  8
++         5  8  0  0  0  0  0  0  0  0  0  0  0  0  0  0  0
++         0  0  0  0  0  0  0  0  0  0  0  0  0  0  0  0  0
%c M  cc GPS ccc cccc cccc cccc cccc ccccc ccccc ccccc ccccc
%c cc cc ccc ccc cccc cccc cccc cccc ccccc ccccc ccccc ccccc
%f  0.0000000  0.000000000  0.00000000000  0.000000000000000
%f  0.0000000  0.000000000  0.00000000000  0.000000000000000
%i    0    0    0    0      0      0      0      0         0
%i    0    0    0    0      0      0      0      0         0
/* IAC                                ULTRA-RAPID PREDICTION
/* S/V CLOCKS ARE ALIGNED TO GNSS TIME                      
/* G:C1WC2W R:C1PC2P E:C1XC5X C:C2IC6I J:C1CC2S             
/* PCV:IGS20_2317 OL/AL:FES2004  NONE     YN ORB:CoN CLK:CoN
*  2024 10 25  0 30  0.00000000
PG02  13725.363888 -22100.107730  -3851.779890   -329.758973
PG03   6111.532178 -13608.982057 -22132.217301    580.385797
PG04   2202.138215 -23460.818332 -12095.031361    467.637549
PG05 -21295.376163   6287.875090  14443.435830   -190.858817
PG06 -16089.283249  -2975.177056 -20877.523612    -63.153940
PG07   -417.376337 -19236.620403  18643.025321    -24.890431
PG08   9650.074642 -14723.378125  19638.714499    394.316155
PG09  -6371.647889 -25557.891239  -3217.906669    413.383654
PG10  23237.893928  10675.565397   8018.750087   -170.530577
PG11 -21566.087875   9816.360698 -11896.440112   -746.319077
PG12 -11123.435720  12088.839568 -21143.513775   -547.455393
PG13 -13905.811304   6068.871162  21545.316648    683.018648
PG14 -20562.120257 -13115.071018  10838.946671    524.947436
PG15  -7378.757973  16442.839839  18939.247661    219.685453
PG16  24301.483308   -310.546408  10883.820030   -146.114942
PG17 -13229.858748 -19417.761022 -11780.343993    583.792534
PG18    918.272231  18090.198497  19372.123881   -658.998802
PG19 -15511.704497 -11179.742444 -18759.988368    554.598624
PG20 -26158.774514   1671.713776   3833.252802    369.356197
PG21  16787.295443 -19744.609282   2026.014029     99.031613
PG22 -24079.399365 -10322.228811   3603.662574    -73.913975
PG23  12582.447119  14847.225963  18211.064024    348.822867
PG24 -13954.356258  22201.433936  -2906.371212   -483.556099
PG25   3821.621391  16179.226097 -21110.033019    499.393754
PG26  26404.501786   4334.391824  -1026.206941     47.315865
PG27  14905.875010  -2897.383904  21513.180901    -34.691318
PG28  15172.414173   5076.115015 -21216.813139   -457.058171
PG29   2937.675524  25964.167942  -4419.224798   -568.883640
PG30 -10230.228091 -12185.873418  21401.275031   -295.741486
PG31  20961.466775  -5705.708397 -15767.260990   -222.877114
PG32  15329.592301  17061.905831 -13350.200821   -582.684321
PR01   7267.611290  -8294.731159 -23006.021539    102.164566
PR02  -5723.160144 -19313.214780 -15563.641713    -25.358072
PR03 -16053.328074 -19759.174763    896.335272    110.042427
PR04 -16989.004047  -9727.210347  16363.169426    260.815245
PR05  -9113.027112   5652.305641  23148.335552    139.665458
PR07  16191.403743  19708.302843  -1266.237398     93.610324
PR08  17101.078655   9412.005656 -16391.693667     -6.387853
PR09  -4745.614680  11941.033883 -22029.672997    216.628279
PR11  24112.094742    242.545179  -8282.152383      8.487224
PR12  21248.940876  -8606.838881  11220.623848     46.427076
PR14 -13658.684488  -7731.575019  20125.480004     27.127268
PR15 -24639.730009    442.295590   6617.092374     74.664717
PR16 -21371.538643   8525.237486 -11040.769778     30.208518
PR17  -4062.111796 -14795.730275 -20378.418014    133.764585
PR18 -11720.456786   1403.057799 -22595.735669    168.522636
PR19 -14258.614338  15052.850610 -14842.488638   -296.081397
PR20  -8001.757553  23518.448007   5875.659610   -120.918770
PR21   3385.595829  15453.323367  20004.228526   -145.593481
PR22  12511.385762  -2176.424822  22152.472072     10.950783
PR24   6510.320762 -23865.737435  -6252.395721    -77.350245
PR25      0.000000      0.000000      0.000000    -88.091138
PR26  17488.307739  10614.584647 -15210.873763   -520.555722
*  2024 10 25  0 45  0.00000000
PG02  14135.374989 -22212.264967   -980.878143   -329.751473
PG03   8522.117395 -13106.728106 -21619.356067    580.395726
PG04   2847.157565 -22068.757414 -14376.866777    467.643575
PG05 -22801.297969   5902.680651  12160.560708   -190.859830
PG06 -14500.404455  -4827.266517 -21668.029762    -63.179221
PG07    995.401843 -20611.949899  16993.086109    -24.887692
PG08  10617.912703 -12587.871148  20633.452701    394.326158
PG09  -5946.734001 -25164.563032  -6009.466171    413.398681
PG10  22203.182639  10617.208451  10638.248799   -170.542971
PG11 -20680.122398   8590.510644 -14194.945868   -746.321370
PG12 -13337.069674  11428.230386 -20192.484363   -547.457694
PG13 -14421.814646   3594.687421  21778.330744    683.020277
PG14 -19180.560378 -13061.465076  13172.451479    524.954959
PG15  -8613.369574  14446.555623  20001.855318    219.689516
PG16  25336.697737    191.303135   8346.426022   -146.106053
PG17 -13353.278303 -20698.484226  -9265.694665    583.780405
PG18   -592.195211  19594.531693  17839.915773   -658.999761
PG19 -15866.072685 -13162.856627 -17129.252429    554.602795
PG20 -26426.419129   1391.477055    995.999426    369.355873
PG21  16845.986544 -19254.574731   4908.956608     99.030852
PG22 -23494.428640 -10435.512665   6399.873287    -73.916902
PG23  10445.296061  14593.987592  19689.014627    348.830159
PG24 -14322.408262  22097.427175    -87.792811   -483.554716
PG25   1473.514446  15826.232249 -21650.641466    499.393604
PG26  26119.379806   4614.599217  -3780.866658     47.307193
PG27  15737.333121   -538.661244  21149.173209    -34.691454
PG28  13665.795202   7010.034481 -21684.701420   -457.069453
PG29   2541.583735  25385.620853  -7194.705260   -568.881088
PG30  -8621.542798 -13975.680109  20985.228704   -295.734643
PG31  19831.793408  -4225.240804 -17583.215634   -222.876601
PG32  15624.908906  18461.573441 -10992.563816   -582.680088
PR01   9155.729743  -6176.747449 -22997.758756    102.165696
PR02  -4497.768072 -17641.541596 -17791.968110    -25.358237
PR03 -16115.481231 -19584.715351  -2326.679917    110.042964
PR04 -18279.585752 -11082.930088  13923.386355    260.816800
PR05 -10921.506364   3468.183589  22790.712262    139.665931
PR07  16296.447005  19571.002245   1949.741766     93.610983
PR08  18405.368434  10775.204046 -13972.485903     -6.387832
PR09  -7334.371270  12527.386556 -20976.885862    216.630206
PR11  22904.754056    336.202719 -11192.534956      8.486327
PR12  22409.033529  -8943.646156   8320.540092     46.427423
PR14 -11133.241643  -8165.349875  21464.095660     27.127259
PR15 -23635.441212    383.681162   9613.205548     74.664507
PR16 -22508.200534   8882.243173  -8119.017807     30.208779
PR17  -3319.695164 -17092.531572 -18647.648278    133.767590
PR18 -10671.907717  -1224.560524 -23115.857533    168.524241
PR19 -13344.092486  13288.019842 -17191.800930   -296.082643
PR20  -8007.801253  24088.244185   2688.434785   -120.920175
PR21   2649.955393  17696.245521  18169.345036   -145.596394
PR22  11429.299177    371.516826  22831.903135     10.940555
PR24   6571.847712 -24461.666757  -3107.874458    -77.351679
PR25      0.000000      0.000000      0.000000    -88.087409
PR26  18702.562035  11843.560248 -12644.027211   -520.523507
EOF
